ONEWEB-0243             
1 48774U 21045H   26056.10852572 -.00000990  00000+0 -26652-2 0  9993
2 48774  87.8952 281.6017 0001320  98.6219 261.5061 13.15538902229626
ONEWEB-0222             
1 48775U 21045J   26056.16795195  .00000101  00000+0  23339-3 0  9999
2 48775  87.8961 281.5489 0001561  92.4814 267.6495 13.15548015229678
ONEWEB-0244             
1 48776U 21045K   26056.04196786 -.00000245  00000+0 -68470-3 0  9994
2 48776  87.8963 281.5636 0001534  92.0023 268.1283 13.15547540230229
ONEWEB-0247             
1 48777U 21045L   26056.11486374 -.00000032  00000+0 -11973-3 0  9998
2 48777  87.8951 281.5951 0001265 119.0373 241.0884 13.15546572229674
ONEWEB-0245             
1 48778U 21045M   26056.18615933 -.00000074  00000+0 -23079-3 0  9997
2 48778  87.8958 281.5502 0001769  91.7918 268.3414 13.15546204229655
ONEWEB-0229             
1 48779U 21045N   26056.18140605 -.00000076  00000+0 -23580-3 0  9996
2 48779  87.8958 281.5500 0001433  88.5089 271.6205 13.15546629229684
ONEWEB-0228             
1 48780U 21045P   26056.13876432 -.00000028  00000+0 -10885-3 0  9998
2 48780  87.8959 281.5451 0001546  90.3375 269.7932 13.15547605229596
ONEWEB-0232             
1 48781U 21045Q   26056.11327074 -.00000323  00000+0 -89211-3 0  9997
2 48781  87.8966 281.5482 0001560  87.0091 273.1218 13.15547290229915
ONEWEB-0231             
1 48782U 21045R   26056.16715083 -.00000066  00000+0 -21046-3 0  9990
2 48782  87.8952 281.5666 0001559  95.0108 265.1200 13.15548552229612
ONEWEB-0234             
1 48783U 21045S   26056.12899456  .00000058  00000+0  11990-3 0  9990
2 48783  87.8950 281.5519 0002424  82.6593 277.4812 13.15549334229748
ONEWEB-0238             
1 48784U 21045T   26056.12925704 -.00000145  00000+0 -41945-3 0  9999
2 48784  87.8951 281.5454 0002008  84.4006 275.7353 13.15547947229643
ONEWEB-0240             
1 48785U 21045U   26056.15052366  .00000177  00000+0  43711-3 0  9994
2 48785  87.8960 281.5413 0001764  98.1677 261.9653 13.15547614229677
ONEWEB-0246             
1 48786U 21045V   26056.14496506  .00000057  00000+0  11643-3 0  9998
2 48786  87.8961 281.5525 0001472  87.4993 272.6306 13.15547756229548
ONEWEB-0210             
1 48787U 21045W   26056.11960803 -.00000122  00000+0 -35926-3 0  9997
2 48787  87.8953 281.5542 0000897 117.3979 242.7242 13.15547124229586
ONEWEB-0214             
1 48788U 21045X   26056.12833289  .00000015  00000+0  67872-5 0  9992
2 48788  87.8960 281.5481 0001190  89.8439 270.2827 13.15547161229551
ONEWEB-0221             
1 48789U 21045Y   26056.13545686 -.00000088  00000+0 -26824-3 0  9997
2 48789  87.8959 281.5569 0001567  96.4900 263.6409 13.15548206229645
ONEWEB-0213             
1 48790U 21045Z   26056.12436997  .00000027  00000+0  36815-4 0  9995
2 48790  87.8961 281.5628 0001447  97.2165 262.9129 13.15547311229709
