[{"OBJECT_NAME":"ONEWEB-0243","OBJECT_ID":"2021-045H","EPOCH":"2026-02-25T02:36:16.622208","MEAN_MOTION":13.15538902,"ECCENTRICITY":0.000132,"INCLINATION":87.8952,"RA_OF_ASC_NODE":281.6017,"ARG_OF_PERICENTER":98.6219,"MEAN_ANOMALY":261.5061,"EPHEMERIS_TYPE":0,"CLASSIFICATION_TYPE":"U","NORAD_CAT_ID":48774,"ELEMENT_SET_NO":999,"REV_AT_EPOCH":22962,"BSTAR":-0.0026652,"MEAN_MOTION_DOT":-9.9e-6,"MEAN_MOTION_DDOT":0},{"OBJECT_NAME":"ONEWEB-0222","OBJECT_ID":"2021-045J","EPOCH":"2026-02-25T04:01:51.048480","MEAN_MOTION":13.15548015,"ECCENTRICITY":0.0001561,"INCLINATION":87.8961,"RA_OF_ASC_NODE":281.5489,"ARG_OF_PERICENTER":92.4814,"MEAN_ANOMALY":267.6495,"EPHEMERIS_TYPE":0,"CLASSIFICATION_TYPE":"U","NORAD_CAT_ID":48775,"ELEMENT_SET_NO":999,"REV_AT_EPOCH":22967,"BSTAR":0.00023339,"MEAN_MOTION_DOT":1.01e-6,"MEAN_MOTION_DDOT":0},{"OBJECT_NAME":"ONEWEB-0244","OBJECT_ID":"2021-045K","EPOCH":"2026-02-25T01:00:26.023104","MEAN_MOTION":13.1554754,"ECCENTRICITY":0.0001534,"INCLINATION":87.8963,"RA_OF_ASC_NODE":281.5636,"ARG_OF_PERICENTER":92.0023,"MEAN_ANOMALY":268.1283,"EPHEMERIS_TYPE":0,"CLASSIFICATION_TYPE":"U","NORAD_CAT_ID":48776,"ELEMENT_SET_NO":999,"REV_AT_EPOCH":23022,"BSTAR":-0.0006847,"MEAN_MOTION_DOT":-2.45e-6,"MEAN_MOTION_DDOT":0},{"OBJECT_NAME":"ONEWEB-0247","OBJECT_ID":"2021-045L","EPOCH":"2026-02-25T02:45:24.227136","MEAN_MOTION":13.15546572,"ECCENTRICITY":0.0001265,"INCLINATION":87.8951,"RA_OF_ASC_NODE":281.5951,"ARG_OF_PERICENTER":119.0373,"MEAN_ANOMALY":241.0884,"EPHEMERIS_TYPE":0,"CLASSIFICATION_TYPE":"U","NORAD_CAT_ID":48777,"ELEMENT_SET_NO":999,"REV_AT_EPOCH":22967,"BSTAR":-0.00011973,"MEAN_MOTION_DOT":-3.2e-7,"MEAN_MOTION_DDOT":0},{"OBJECT_NAME":"ONEWEB-0245","OBJECT_ID":"2021-045M","EPOCH":"2026-02-25T04:28:04.166112","MEAN_MOTION":13.15546204,"ECCENTRICITY":0.0001769,"INCLINATION":87.8958,"RA_OF_ASC_NODE":281.5502,"ARG_OF_PERICENTER":91.7918,"MEAN_ANOMALY":268.3414,"EPHEMERIS_TYPE":0,"CLASSIFICATION_TYPE":"U","NORAD_CAT_ID":48778,"ELEMENT_SET_NO":999,"REV_AT_EPOCH":22965,"BSTAR":-0.00023079,"MEAN_MOTION_DOT":-7.4e-7,"MEAN_MOTION_DDOT":0},{"OBJECT_NAME":"ONEWEB-0229","OBJECT_ID":"2021-045N","EPOCH":"2026-02-25T04:21:13.482720","MEAN_MOTION":13.15546629,"ECCENTRICITY":0.0001433,"INCLINATION":87.8958,"RA_OF_ASC_NODE":281.55,"ARG_OF_PERICENTER":88.5089,"MEAN_ANOMALY":271.6205,"EPHEMERIS_TYPE":0,"CLASSIFICATION_TYPE":"U","NORAD_CAT_ID":48779,"ELEMENT_SET_NO":999,"REV_AT_EPOCH":22968,"BSTAR":-0.0002358,"MEAN_MOTION_DOT":-7.6e-7,"MEAN_MOTION_DDOT":0},{"OBJECT_NAME":"ONEWEB-0228","OBJECT_ID":"2021-045P","EPOCH":"2026-02-25T03:19:49.237248","MEAN_MOTION":13.15547605,"ECCENTRICITY":0.0001546,"INCLINATION":87.8959,"RA_OF_ASC_NODE":281.5451,"ARG_OF_PERICENTER":90.3375,"MEAN_ANOMALY":269.7932,"EPHEMERIS_TYPE":0,"CLASSIFICATION_TYPE":"U","NORAD_CAT_ID":48780,"ELEMENT_SET_NO":999,"REV_AT_EPOCH":22959,"BSTAR":-0.00010885,"MEAN_MOTION_DOT":-2.8e-7,"MEAN_MOTION_DDOT":0},{"OBJECT_NAME":"ONEWEB-0232","OBJECT_ID":"2021-045Q","EPOCH":"2026-02-25T02:43:06.591936","MEAN_MOTION":13.1554729,"ECCENTRICITY":0.000156,"INCLINATION":87.8966,"RA_OF_ASC_NODE":281.5482,"ARG_OF_PERICENTER":87.0091,"MEAN_ANOMALY":273.1218,"EPHEMERIS_TYPE":0,"CLASSIFICATION_TYPE":"U","NORAD_CAT_ID":48781,"ELEMENT_SET_NO":999,"REV_AT_EPOCH":22991,"BSTAR":-0.00089211,"MEAN_MOTION_DOT":-3.23e-6,"MEAN_MOTION_DDOT":0},{"OBJECT_NAME":"ONEWEB-0231","OBJECT_ID":"2021-045R","EPOCH":"2026-02-25T04:00:41.831712","MEAN_MOTION":13.15548552,"ECCENTRICITY":0.0001559,"INCLINATION":87.8952,"RA_OF_ASC_NODE":281.5666,"ARG_OF_PERICENTER":95.0108,"MEAN_ANOMALY":265.12,"EPHEMERIS_TYPE":0,"CLASSIFICATION_TYPE":"U","NORAD_CAT_ID":48782,"ELEMENT_SET_NO":999,"REV_AT_EPOCH":22961,"BSTAR":-0.00021046,"MEAN_MOTION_DOT":-6.6e-7,"MEAN_MOTION_DDOT":0},{"OBJECT_NAME":"ONEWEB-0234","OBJECT_ID":"2021-045S","EPOCH":"2026-02-25T03:05:45.129984","MEAN_MOTION":13.15549334,"ECCENTRICITY":0.0002424,"INCLINATION":87.895,"RA_OF_ASC_NODE":281.5519,"ARG_OF_PERICENTER":82.6593,"MEAN_ANOMALY":277.4812,"EPHEMERIS_TYPE":0,"CLASSIFICATION_TYPE":"U","NORAD_CAT_ID":48783,"ELEMENT_SET_NO":999,"REV_AT_EPOCH":22974,"BSTAR":0.0001199,"MEAN_MOTION_DOT":5.8e-7,"MEAN_MOTION_DDOT":0},{"OBJECT_NAME":"ONEWEB-0238","OBJECT_ID":"2021-045T","EPOCH":"2026-02-25T03:06:07.808256","MEAN_MOTION":13.15547947,"ECCENTRICITY":0.0002008,"INCLINATION":87.8951,"RA_OF_ASC_NODE":281.5454,"ARG_OF_PERICENTER":84.4006,"MEAN_ANOMALY":275.7353,"EPHEMERIS_TYPE":0,"CLASSIFICATION_TYPE":"U","NORAD_CAT_ID":48784,"ELEMENT_SET_NO":999,"REV_AT_EPOCH":22964,"BSTAR":-0.00041945,"MEAN_MOTION_DOT":-1.45e-6,"MEAN_MOTION_DDOT":0},{"OBJECT_NAME":"ONEWEB-0240","OBJECT_ID":"2021-045U","EPOCH":"2026-02-25T03:36:45.244224","MEAN_MOTION":13.15547614,"ECCENTRICITY":0.0001764,"INCLINATION":87.896,"RA_OF_ASC_NODE":281.5413,"ARG_OF_PERICENTER":98.1677,"MEAN_ANOMALY":261.9653,"EPHEMERIS_TYPE":0,"CLASSIFICATION_TYPE":"U","NORAD_CAT_ID":48785,"ELEMENT_SET_NO":999,"REV_AT_EPOCH":22967,"BSTAR":0.00043711,"MEAN_MOTION_DOT":1.77e-6,"MEAN_MOTION_DDOT":0},{"OBJECT_NAME":"ONEWEB-0246","OBJECT_ID":"2021-045V","EPOCH":"2026-02-25T03:28:44.981184","MEAN_MOTION":13.15547756,"ECCENTRICITY":0.0001472,"INCLINATION":87.8961,"RA_OF_ASC_NODE":281.5525,"ARG_OF_PERICENTER":87.4993,"MEAN_ANOMALY":272.6306,"EPHEMERIS_TYPE":0,"CLASSIFICATION_TYPE":"U","NORAD_CAT_ID":48786,"ELEMENT_SET_NO":999,"REV_AT_EPOCH":22954,"BSTAR":0.00011643,"MEAN_MOTION_DOT":5.7e-7,"MEAN_MOTION_DDOT":0},{"OBJECT_NAME":"ONEWEB-0210","OBJECT_ID":"2021-045W","EPOCH":"2026-02-25T02:52:14.133792","MEAN_MOTION":13.15547124,"ECCENTRICITY":8.97e-5,"INCLINATION":87.8953,"RA_OF_ASC_NODE":281.5542,"ARG_OF_PERICENTER":117.3979,"MEAN_ANOMALY":242.7242,"EPHEMERIS_TYPE":0,"CLASSIFICATION_TYPE":"U","NORAD_CAT_ID":48787,"ELEMENT_SET_NO":999,"REV_AT_EPOCH":22958,"BSTAR":-0.00035926,"MEAN_MOTION_DOT":-1.22e-6,"MEAN_MOTION_DDOT":0},{"OBJECT_NAME":"ONEWEB-0214","OBJECT_ID":"2021-045X","EPOCH":"2026-02-25T03:04:47.961696","MEAN_MOTION":13.15547161,"ECCENTRICITY":0.000119,"INCLINATION":87.896,"RA_OF_ASC_NODE":281.5481,"ARG_OF_PERICENTER":89.8439,"MEAN_ANOMALY":270.2827,"EPHEMERIS_TYPE":0,"CLASSIFICATION_TYPE":"U","NORAD_CAT_ID":48788,"ELEMENT_SET_NO":999,"REV_AT_EPOCH":22955,"BSTAR":6.7872e-6,"MEAN_MOTION_DOT":1.5e-7,"MEAN_MOTION_DDOT":0},{"OBJECT_NAME":"ONEWEB-0221","OBJECT_ID":"2021-045Y","EPOCH":"2026-02-25T03:15:03.472704","MEAN_MOTION":13.15548206,"ECCENTRICITY":0.0001567,"INCLINATION":87.8959,"RA_OF_ASC_NODE":281.5569,"ARG_OF_PERICENTER":96.49,"MEAN_ANOMALY":263.6409,"EPHEMERIS_TYPE":0,"CLASSIFICATION_TYPE":"U","NORAD_CAT_ID":48789,"ELEMENT_SET_NO":999,"REV_AT_EPOCH":22964,"BSTAR":-0.00026824,"MEAN_MOTION_DOT":-8.8e-7,"MEAN_MOTION_DDOT":0},{"OBJECT_NAME":"ONEWEB-0213","OBJECT_ID":"2021-045Z","EPOCH":"2026-02-25T02:59:05.565408","MEAN_MOTION":13.15547311,"ECCENTRICITY":0.0001447,"INCLINATION":87.8961,"RA_OF_ASC_NODE":281.5628,"ARG_OF_PERICENTER":97.2165,"MEAN_ANOMALY":262.9129,"EPHEMERIS_TYPE":0,"CLASSIFICATION_TYPE":"U","NORAD_CAT_ID":48790,"ELEMENT_SET_NO":999,"REV_AT_EPOCH":22970,"BSTAR":3.6815e-5,"MEAN_MOTION_DOT":2.7e-7,"MEAN_MOTION_DDOT":0}]
